NORAD_CAT_ID,OBJECT_NAME,OBJECT_TYPE,EPOCH,MEAN_MOTION,ECCENTRICITY,INCLINATION,RA_OF_ASC_NODE,ARG_OF_PERICENTER,MEAN_ANOMALY,BSTAR,MEAN_MOTION_DOT,MEAN_MOTION_DDOT,TLE_LINE0,TLE_LINE1,TLE_LINE2,SEMIMAJOR_AXIS,PERIOD,APOGEE,PERIGEE,DECAYED
52461.0,STARLINK-3900,PAYLOAD,2023-06-03 10:42:11,15.08803013,7.47e-05,53.2173,264.2798,107.4781,252.6293,0.00052294,8.036e-05,0.0,0 STARLINK-3900,1 52461U 22049L   23154.44596437  .00008036  00000-0  52294-3 0  9994,2 52461  53.2173 264.2798 0000747 107.4781 252.6293 15.08803013 60032,6917.993,95.44,540.375,539.342,0.0
52461.0,STARLINK-3900,PAYLOAD,2023-06-03 13:52:56,15.08838836,8.97e-05,53.2169,263.6851,100.0923,260.0171,6.7844e-05,7.92e-06,0.0,0 STARLINK-3900,1 52461U 22049L   23154.57843257  .00000792  00000-0  67844-4 0  9992,2 52461  53.2169 263.6851 0000897 100.0923 260.0171 15.08838836 59894,6917.884,95.438,540.369,539.128,0.0
52461.0,STARLINK-3900,PAYLOAD,2023-06-03 17:03:42,15.08839505,9e-05,53.2169,263.0903,101.0239,259.0854,7.2379e-05,8.64e-06,0.0,0 STARLINK-3900,1 52461U 22049L   23154.71091208  .00000864  00000-0  72379-4 0  9998,2 52461  53.2169 263.0903 0000900 101.0239 259.0854 15.08839505 60074,6917.882,95.438,540.37,539.124,0.0
52461.0,STARLINK-3900,PAYLOAD,2023-06-04 12:08:20,15.08833765,8.15e-05,53.2164,259.5221,104.5853,255.5229,0.00014419,2.007e-05,0.0,0 STARLINK-3900,1 52461U 22049L   23155.50579485  .00002007  00000-0  14419-3 0  9995,2 52461  53.2164 259.5221 0000815 104.5853 255.5229 15.08833765 60032,6917.899,95.438,540.328,539.201,0.0
52461.0,STARLINK-3900,PAYLOAD,2023-06-05 10:23:43,15.08870517,9e-05,53.2162,255.3595,93.0179,267.0916,-0.00035295,-5.905e-05,0.0,0 STARLINK-3900,1 52461U 22049L   23156.43314481 -.00005905  00000-0 -35295-3 0  9998,2 52461  53.2162 255.3595 0000900  93.0179 267.0916 15.08870517 60336,6917.787,95.436,540.275,539.03,0.0
52461.0,STARLINK-3900,PAYLOAD,2023-06-05 13:34:30,15.08827312,7.53e-05,53.2162,254.7663,94.564,265.5438,0.0003358,5.059e-05,0.0,0 STARLINK-3900,1 52461U 22049L   23156.56563633  .00005059  00000-0  33580-3 0  9990,2 52461  53.2162 254.7663 0000753  94.5640 265.5438 15.08827312 60191,6917.919,95.438,540.305,539.263,0.0
52461.0,STARLINK-3900,PAYLOAD,2023-06-05 16:45:16,15.08846777,7.7e-05,53.2163,254.1717,89.2773,270.8307,6.7523e-05,7.87e-06,0.0,0 STARLINK-3900,1 52461U 22049L   23156.69810917  .00000787  00000-0  67523-4 0  9992,2 52461  53.2163 254.1717 0000770  89.2773 270.8307 15.08846777 60373,6917.86,95.437,540.257,539.192,0.0
52461.0,STARLINK-3900,PAYLOAD,2023-06-06 07:03:45,15.08832145,8.61e-05,53.2162,251.4959,87.7913,272.3178,8.0652e-06,-1.59e-06,0.0,0 STARLINK-3900,1 52461U 22049L   23157.29428092 -.00000159  00000-0  80652-5 0  9991,2 52461  53.2162 251.4959 0000861  87.7913 272.3178 15.08832145 60467,6917.904,95.438,540.365,539.174,0.0
52461.0,STARLINK-3900,PAYLOAD,2023-06-06 11:49:55,15.08834143,9.13e-05,53.2162,250.6039,92.8916,267.2181,9.9658e-06,-1.29e-06,0.0,0 STARLINK-3900,1 52461U 22049L   23157.49300014 -.00000129  00000-0  99658-5 0  9999,2 52461  53.2162 250.6039 0000913  92.8916 267.2181 15.08834143 60338,6917.898,95.438,540.395,539.132,0.0
52461.0,STARLINK-3900,PAYLOAD,2023-06-06 16:36:04,15.0884236,7.97e-05,53.2164,249.7115,87.9854,272.1229,1.329e-05,-7.6e-07,0.0,0 STARLINK-3900,1 52461U 22049L   23157.69171479 -.00000076  00000-0  13290-4 0  9990,2 52461  53.2164 249.7115 0000797  87.9854 272.1229 15.08842360 60529,6917.873,95.437,540.29,539.187,0.0
52461.0,STARLINK-3900,PAYLOAD,2023-06-07 05:19:09,15.0883971,9.93e-05,53.2173,247.3333,99.5792,260.5312,-6.0888e-05,-1.257e-05,0.0,0 STARLINK-3900,1 52461U 22049L   23158.22164114 -.00001257  00000-0 -60888-4 0  9996,2 52461  53.2173 247.3333 0000993  99.5792 260.5312 15.08839710 60601,6917.881,95.438,540.433,539.059,0.0
52461.0,STARLINK-3900,PAYLOAD,2023-06-07 06:54:32,15.08835679,8.88e-05,53.2174,247.0359,94.3627,265.7467,-1.8624e-05,-5.84e-06,0.0,0 STARLINK-3900,1 52461U 22049L   23158.28788190 -.00000584  00000-0 -18624-4 0  9991,2 52461  53.2174 247.0359 0000888  94.3627 265.7467 15.08835679 60451,6917.894,95.438,540.373,539.144,0.0
52461.0,STARLINK-3900,PAYLOAD,2023-06-08 08:20:43,15.08836081,0.0001005,53.2163,242.2771,92.4623,267.6484,6.2015e-05,6.99e-06,0.0,0 STARLINK-3900,1 52461U 22049L   23159.34772046  .00000699  00000-0  62015-4 0  9990,2 52461  53.2163 242.2771 0001005  92.4623 267.6484 15.08836081 60774,6917.892,95.438,540.453,539.062,0.0
52461.0,STARLINK-3900,PAYLOAD,2023-06-08 11:31:29,15.08839449,8.91e-05,53.2163,241.6825,89.475,270.6344,6.8128e-05,7.97e-06,0.0,0 STARLINK-3900,1 52461U 22049L   23159.48019820  .00000797  00000-0  68128-4 0  9999,2 52461  53.2163 241.6825 0000891  89.4750 270.6344 15.08839449 60631,6917.882,95.438,540.363,539.131,0.0
52461.0,STARLINK-3900,PAYLOAD,2023-06-08 13:06:52,15.08841642,8.78e-05,53.2163,241.3854,89.9158,270.1935,9.1203e-05,1.164e-05,0.0,0 STARLINK-3900,1 52461U 22049L   23159.54643615  .00001164  00000-0  91203-4 0  9990,2 52461  53.2163 241.3854 0000878  89.9158 270.1935 15.08841642 60642,6917.875,95.437,540.348,539.133,0.0
52461.0,STARLINK-3900,PAYLOAD,2023-06-08 17:53:01,15.08847139,8.71e-05,53.2161,240.4933,89.4658,270.6434,0.00012244,1.662e-05,0.0,0 STARLINK-3900,1 52461U 22049L   23159.74515137  .00001662  00000-0  12244-3 0  9999,2 52461  53.2161 240.4933 0000871  89.4658 270.6434 15.08847139 60838,6917.859,95.437,540.326,539.121,0.0
52461.0,STARLINK-3900,PAYLOAD,2023-06-09 11:22:16,15.0884154,9.34e-05,53.2156,237.2223,96.6762,263.4337,4.4599e-05,4.22e-06,0.0,0 STARLINK-3900,1 52461U 22049L   23160.47379726  .00000422  00000-0  44599-4 0  9995,2 52461  53.2156 237.2223 0000934  96.6762 263.4337 15.08841540 60948,6917.876,95.437,540.387,539.095,0.0
52461.0,STARLINK-3900,PAYLOAD,2023-06-10 11:13:03,15.08836099,8.93e-05,53.2155,232.7629,89.7105,270.3989,1.2398e-05,-9e-07,0.0,0 STARLINK-3900,1 52461U 22049L   23161.46740137 -.00000090  00000-0  12398-4 0  9997,2 52461  53.2155 232.7629 0000893  89.7105 270.3989 15.08836099 61095,6917.892,95.438,540.375,539.14,0.0
52461.0,STARLINK-3900,PAYLOAD,2023-06-11 11:03:50,15.08837375,7.99e-05,53.2158,228.3018,85.7321,274.3763,-1.0313e-05,-4.52e-06,0.0,0 STARLINK-3900,1 52461U 22049L   23162.46100305 -.00000452  00000-0 -10313-4 0  9993,2 52461  53.2158 228.3018 0000799  85.7321 274.3763 15.08837375 61083,6917.888,95.438,540.306,539.201,0.0
52461.0,STARLINK-3900,PAYLOAD,2023-06-12 04:33:04,15.08837206,8.83e-05,53.2157,225.0312,86.4901,273.6192,8.7599e-05,1.107e-05,0.0,0 STARLINK-3900,1 52461U 22049L   23163.18964085  .00001107  00000-0  87599-4 0  9992,2 52461  53.2157 225.0312 0000883  86.4901 273.6192 15.08837206 61350,6917.889,95.438,540.365,539.143,0.0
52461.0,STARLINK-3900,PAYLOAD,2023-06-12 10:54:37,15.0884038,8.8e-05,53.2156,223.8419,85.1167,274.9926,0.00010797,1.431e-05,0.0,0 STARLINK-3900,1 52461U 22049L   23163.45459857  .00001431  00000-0  10797-3 0  9993,2 52461  53.2156 223.8419 0000880  85.1167 274.9926 15.08840380 61233,6917.879,95.438,540.353,539.135,0.0
52461.0,STARLINK-3900,PAYLOAD,2023-06-12 20:26:56,15.08837025,8.23e-05,53.2152,222.0575,78.4938,281.6146,5.1485e-05,5.32e-06,0.0,0 STARLINK-3900,1 52461U 22049L   23163.85204300  .00000532  00000-0  51485-4 0  9999,2 52461  53.2152 222.0575 0000823  78.4938 281.6146 15.08837025 61298,6917.889,95.438,540.324,539.185,0.0
52461.0,STARLINK-3900,PAYLOAD,2023-06-13 04:23:52,15.08831695,9.31e-05,53.2157,220.5708,81.4616,278.6482,1.4956e-05,-5e-07,0.0,0 STARLINK-3900,1 52461U 22049L   23164.18324875 -.00000050  00000-0  14956-4 0  9994,2 52461  53.2157 220.5708 0000931  81.4616 278.6482 15.08831695 61501,6917.906,95.438,540.415,539.127,0.0
52461.0,STARLINK-3900,PAYLOAD,2023-06-13 20:17:43,15.08837015,9.63e-05,53.2158,217.5976,81.3165,278.7937,2.3594e-05,8.8e-07,0.0,0 STARLINK-3900,1 52461U 22049L   23164.84564699  .00000088  00000-0  23594-4 0  9995,2 52461  53.2158 217.5976 0000963  81.3165 278.7937 15.08837015 61449,6917.89,95.438,540.421,539.088,0.0
52461.0,STARLINK-3900,PAYLOAD,2023-06-13 23:28:30,15.08840841,9.34e-05,53.2156,217.0024,79.7404,280.3693,1.3396e-05,-7.5e-07,0.0,0 STARLINK-3900,1 52461U 22049L   23164.97812526 -.00000075  00000-0  13396-4 0  9990,2 52461  53.2156 217.0024 0000934  79.7404 280.3693 15.08840841 61620,6917.878,95.438,540.389,539.097,0.0
52461.0,STARLINK-3900,PAYLOAD,2023-06-15 10:26:59,15.08833989,9.19e-05,53.2154,210.4589,81.8571,278.2526,2.7047e-05,1.43e-06,0.0,0 STARLINK-3900,1 52461U 22049L   23166.43541108  .00000143  00000-0  27047-4 0  9991,2 52461  53.2154 210.4589 0000919  81.8571 278.2526 15.08833989 61843,6917.899,95.438,540.4,539.128,0.0
52461.0,STARLINK-3900,PAYLOAD,2023-06-15 12:02:22,15.08834769,9.29e-05,53.2153,210.1613,80.2168,279.8929,3.3306e-05,2.42e-06,0.0,0 STARLINK-3900,1 52461U 22049L   23166.50165074  .00000242  00000-0  33306-4 0  9998,2 52461  53.2153 210.1613 0000929  80.2168 279.8929 15.08834769 61697,6917.896,95.438,540.404,539.119,0.0
52461.0,STARLINK-3900,PAYLOAD,2023-06-16 02:20:50,15.08841008,9.34e-05,53.2154,207.4849,80.7978,279.3119,5.4674e-05,5.83e-06,0.0,0 STARLINK-3900,1 52461U 22049L   23167.09780656  .00000583  00000-0  54674-4 0  9991,2 52461  53.2154 207.4849 0000934  80.7978 279.3119 15.08841008 61946,6917.877,95.437,540.388,539.096,0.0
52461.0,STARLINK-3900,PAYLOAD,2023-06-16 10:17:45,15.08847474,9.56e-05,53.2154,205.9984,84.5501,275.56,9.6655e-05,1.251e-05,0.0,0 STARLINK-3900,1 52461U 22049L   23167.42900051  .00001251  00000-0  96655-4 0  9999,2 52461  53.2154 205.9984 0000956  84.5501 275.5600 15.08847474 61831,6917.858,95.437,540.384,539.061,0.0
52461.0,STARLINK-3900,PAYLOAD,2023-06-16 19:50:05,15.08837094,0.0001023,53.2155,204.2147,80.2221,279.8887,6.3476e-05,7.23e-06,0.0,0 STARLINK-3900,1 52461U 22049L   23167.82644730  .00000723  00000-0  63476-4 0  9990,2 52461  53.2155 204.2147 0001023  80.2221 279.8887 15.08837094 61890,6917.889,95.438,540.462,539.047,0.0
